#cP2022  3  1  0  0  0.00000000      96 ORBIT   JGS FIT  QSS
## 2199 172800.00000000   900.00000000 59639 0.0000000000000
+   28   G01G02G03G05G06G07G08G09G10G12G15G16G17G19G20G21G24
+        G25G26G27G29G30G31G32J01J02J03J07  0  0  0  0  0  0
+          0  0  0  0  0  0  0  0  0  0  0  0  0  0  0  0  0
+          0  0  0  0  0  0  0  0  0  0  0  0  0  0  0  0  0
+          0  0  0  0  0  0  0  0  0  0  0  0  0  0  0  0  0
++         3  3  3  3  2  3  3  3  3  3  3  3  3  2  3  3  3
++         3  3  3  3  3  3  3 17  5  5  9  0  0  0  0  0  0
++         0  0  0  0  0  0  0  0  0  0  0  0  0  0  0  0  0
++         0  0  0  0  0  0  0  0  0  0  0  0  0  0  0  0  0
++         0  0  0  0  0  0  0  0  0  0  0  0  0  0  0  0  0
%c M  cc QZS ccc cccc cccc cccc cccc ccccc ccccc ccccc ccccc
%c cc cc ccc ccc cccc cccc cccc cccc ccccc ccccc ccccc ccccc
%f  1.2500000  1.025000000  0.00000000000  0.000000000000000
%f  0.0000000  0.000000000  0.00000000000  0.000000000000000
%i    0    0    0    0      0      0      0      0         0
%i    0    0    0    0      0      0      0      0         0
/* PROGRAM: POCSEL v.785, DATE: 2022/03/02 17:05:06 UTC     
/* Comment line1                                            
/* Comment line2                                            
/*                                                          
*  2022  3  1 15 45  0.00000000
PG01 -10159.255270 -13372.877767 -20947.235962    419.431412 12  6  7 143       
PG02 -13093.816340  14746.092413  18516.190284   -651.670474  8  8 10 142       
PG03 -12713.936606 -23187.614704  -3153.385955   -143.819197 11  8 10 143       
PG05    851.993301  20754.533554  16304.082718    -73.144217 10 11  5 143       
PG06 -25152.470464   5743.869058   6548.199175    217.108987  7  9 11 143       
PG07 -23717.319793  -6572.403334  10987.393762    313.545477 12  8  8 143       
PG08   4256.038879 -24262.991178  -9483.699609    -58.118286  9  8 10 143       
PG09 -12279.430418  -9546.369353  21457.809930   -351.953658  8  8  7 143       
PG10  18060.605071   3681.148735 -19088.086657   -334.213798  6 10 11 143       
PG12   8890.591554  24409.050823  -6121.558493   -178.355354 11  9  9 143       
PG15   -608.929223  24524.727252 -10173.362921    -80.107567  9  8 11 143       
PG16   4684.601220 -18035.526553  18468.264273   -475.521930  9 12  6 143       
PG17 -17849.772055   6511.383171 -18149.750236    581.553095  8 11  5 143       
PG19 -19014.870110  12785.346993 -13529.926203    125.335646  7 11  6 143       
PG20  -6859.656930  15013.254568  20851.286118    516.487459  9 11  8 143       
PG21    680.481377 -15061.218566 -21149.928593    158.795862 11  7 10 143       
PG24   6063.843506  15082.860257 -21341.131189    271.520678 12  7  8 143       
PG25  17440.829054  19452.830323   5267.018824    292.349934 11  6 11 143       
PG26  13480.913439  -8082.102384  21337.195779    187.287049  7 11 10 143       
PG27  12319.111980 -23255.754815    927.119139    138.615496  8 10  9 143       
PG29   9454.102762  12225.313635  21547.144271   -486.161417 10  8 10 143       
PG30 -26580.219284   -704.909457   2438.835539   -516.272042 10  9 10 143       
PG31  24427.654092  -6878.938027   8479.282843   -166.969842  7 10 11 143       
PG32  17916.416318 -10747.639094 -16151.608213    -76.578437  8 11  6 143       
PJ01      0.000000      0.000000      0.000000 999999.999999                    
PJ02 -22645.878992  18172.662935 -26050.993223     -1.670030 14 16 12 143       
PJ03 -29527.120738  29938.992813   8328.937819     -0.759460 16 15 12 143       
PJ07 -25414.739128  33653.173969    -28.174665      0.029266 28 27 11 143       
*  2022  3  1 16  0  0.00000000
PG01  -7797.648433 -13596.642401 -21779.371874    419.422955 13  6  8 143       
PG02 -14986.004222  14945.923210  16788.977779   -651.670898  8  9 11 142       
PG03 -12250.929615 -22893.131796  -5963.266905   -143.834849 12  9 10 143       
PG05   -502.068124  19274.163438  18040.341951    -73.145224 11 11  5 143       
PG06 -25742.454840   5624.910419   3726.282088    217.119893  8 10 11 143       
PG07 -22416.467675  -6880.076671  13317.679093    313.547528 12  8  8 143       
PG08   4860.454361 -25022.116247  -6809.400577    -58.120017  9  8 11 143       
PG09 -11251.244791 -11761.183339  20913.948831   -351.952109  8  8  8 143       
PG10  19193.699985   5463.742263 -17528.224338   -334.223799  7 11 12 143       
PG12   8293.758968  23813.252223  -8816.607787   -178.360688 11 10  9 143       
PG15  -1214.833110  25362.443991  -7617.720712    -80.105170 10  9 11 143       
PG16   5933.241355 -16152.731148  19825.452180   -475.526373 10 12  6 143       
PG17 -16886.517336   4490.591679 -19588.478954    581.557860  8 11  5 143       
PG19 -18312.014174  11300.243884 -15705.598789    125.339829  8 11  6 143       
PG20  -8576.063618  13310.160946  21344.487537    516.486819  9 11  9 143       
PG21   3197.974544 -15417.391928 -20614.658721    158.796341 11  7 11 143       
PG24   3700.433159  15496.653831 -21550.377990    271.518209 12  7  9 143       
PG25  17517.906802  19977.703100   2480.223661    292.354604 11  6 11 143       
PG26  14976.575259  -6146.426022  21011.725859    187.289713  7 12 10 143       
PG27  12422.272772 -22882.746458   3814.955424    138.628227  8 10  9 143       
PG29   8229.282401  14318.778393  20742.149806   -486.165664 11  8 11 143       
PG30 -26176.686909  -1036.448567   5185.460159   -516.274189 11  9 10 143       
PG31  25264.508225  -6711.406017   5819.584433   -166.971393  7 10 11 143       
PG32  17261.724424  -8871.050524 -17911.619824    -76.584811  8 11  5 143       
PJ01      0.000000      0.000000      0.000000 999999.999999                    
PJ02 -23381.771529  17388.304136 -25952.849380     -1.670396 14 16 13 143       
PJ03 -29119.420440  30483.703245   6581.134124     -0.759727 16 15 12 143       
PJ07 -25414.112157  33653.827319    -25.366804      0.029167 28 27 11 143       
*  2022  3  1 16 15  0.00000000
PG01  -5378.294012 -13965.940727 -22248.040763    419.414620 13  6  9 143       
PG02 -16667.387628  15200.190678  14787.191888   -651.671328  8  9 12 142       
PG03 -11578.390755 -22380.836852  -8671.448644   -143.850465 12  9 10 143       
PG05  -2048.312580  17729.362855  19460.655246    -73.146576 11 12  6 143       
PG06 -26018.788447   5490.727147    840.609285    217.130987  9 10 11 143       
PG07 -20890.107999  -7289.883752  15428.953891    313.549796 13  8  7 143       
PG08   5317.794562 -25518.790451  -4015.553330    -58.121914 10  9 11 143       
PG09 -10365.647117 -13948.397599  20007.817582   -351.950437  9  8  9 143       
PG10  20298.717195   7028.638718 -15666.743271   -334.233659  8 11 12 143       
PG12   7500.017989  23007.935623 -11362.515586   -178.365815 12 11  9 143       
PG15  -1711.715849  25942.189286  -4930.257244    -80.102461 10 10 12 143       
PG16   7351.908892 -14226.535730  20829.378508   -475.530437 10 12  8 143       
PG17 -15972.284703   2285.610912 -20678.047640    581.562285  9 11  5 143       
PG19 -17586.114830   9576.865118 -17613.425354    125.344725  8 12  5 143       
PG20 -10401.717710  11668.252439  21471.082607    516.487018 10 12 10 143       
PG21   5616.300644 -15879.225776 -19698.712989    158.796330 12  8 11 143       
PG24   1352.958599  16026.849387 -21398.662322    271.515875 12  7 10 143       
PG25  17425.086170  20250.133011   -348.690114    292.359409 12  6 12 143       
PG26  16524.180673  -4330.872118  20323.261764    187.292581  6 12 11 143       
PG27  12427.514557 -22209.890507   6635.265395    138.641139  8 11  9 143       
PG29   7170.143082  16375.977930  19578.378661   -486.169929 11  8 12 143       
PG30 -25489.410467  -1426.565281   7844.282749   -516.276186 12 10 10 143       
PG31  25806.913483  -6550.560647   3062.149219   -166.972951  8 11 12 143       
PG32  16638.696848  -6793.193291 -19358.133974    -76.591138  8 12  5 143       
PJ01      0.000000      0.000000      0.000000 999999.999999                    
PJ02 -24189.022493  16685.756572 -25713.739956     -1.670553 14 16 13 143       
PJ03 -28647.985007  30975.243710   4806.000635     -0.759797 16 15 12 143       
PJ07 -25413.457352  33654.476415    -22.446775      0.029201 28 27 10 143       
EOF
